start=new Date('2022-02-20T00:00:00.000Z').valueOf();
sats=[{"RCS_SIZE":"LARGE","FILE":"3308986","TLE_LINE2":"2 46130  53.0531  76.7417 0001545  63.6756 296.4392 15.06409130 84931","NORAD_CAT_ID":"46130","MEAN_ELEMENT_THEORY":"SGP4","PERIOD":"95.592","GP_ID":"196426660","DECAY_DATE":null,"ECCENTRICITY":"0.00015450","SEMIMAJOR_AXIS":"6925.321","REV_AT_EPOCH":"8493","REF_FRAME":"TEME","CLASSIFICATION_TYPE":"U","SITE":"AFETR","OBJECT_TYPE":"PAYLOAD","MEAN_MOTION_DDOT":"0.0000000000000","APOAPSIS":"548.256","CENTER_NAME":"EARTH","ELEMENT_SET_NO":"999","ARG_OF_PERICENTER":"63.6756","EPOCH":"2022-02-19T13:08:37.078368","MEAN_MOTION_DOT":"0.00001932","COUNTRY_CODE":"US","RA_OF_ASC_NODE":"76.7417","EPHEMERIS_TYPE":"0","LAUNCH_DATE":"2020-08-18","TIME_SYSTEM":"UTC","INCLINATION":"53.0531","BSTAR":"0.00014855000000","PERIAPSIS":"546.116","TLE_LINE1":"1 46130U 20057P   22050.54765137  .00001932  00000-0  14855-3 0  9996","MEAN_MOTION":"15.06409130","OBJECT_ID":"2020-057P","MEAN_ANOMALY":"296.4392","OBJECT_NAME":"STARLINK-1624"},{"REV_AT_EPOCH":"8467","SEMIMAJOR_AXIS":"6925.374","DECAY_DATE":null,"ECCENTRICITY":"0.00013820","MEAN_MOTION_DDOT":"0.0000000000000","OBJECT_TYPE":"PAYLOAD","SITE":"AFETR","CLASSIFICATION_TYPE":"U","REF_FRAME":"TEME","TLE_LINE2":"2 46131  53.0550  96.4007 0001382  70.1581 289.9557 15.06391560 84673","FILE":"3308986","RCS_SIZE":"LARGE","GP_ID":"196426914","PERIOD":"95.593","NORAD_CAT_ID":"46131","MEAN_ELEMENT_THEORY":"SGP4","TIME_SYSTEM":"UTC","LAUNCH_DATE":"2020-08-18","EPHEMERIS_TYPE":"0","COUNTRY_CODE":"US","RA_OF_ASC_NODE":"96.4007","OBJECT_ID":"2020-057Q","MEAN_ANOMALY":"289.9557","OBJECT_NAME":"STARLINK-1625","TLE_LINE1":"1 46131U 20057Q   22050.62690335 -.00000222  00000-0  40132-5 0  9994","MEAN_MOTION":"15.06391560","INCLINATION":"53.0550","BSTAR":"0.00000401320000","PERIAPSIS":"546.282","CENTER_NAME":"EARTH","APOAPSIS":"548.197","EPOCH":"2022-02-19T15:02:44.449440","MEAN_MOTION_DOT":"-0.00000222","ELEMENT_SET_NO":"999","ARG_OF_PERICENTER":"70.1581"},{"SITE":"AFETR","REF_FRAME":"TEME","CLASSIFICATION_TYPE":"U","MEAN_MOTION_DDOT":"0.0000000000000","OBJECT_TYPE":"PAYLOAD","DECAY_DATE":null,"ECCENTRICITY":"0.00015840","REV_AT_EPOCH":"8443","SEMIMAJOR_AXIS":"6925.337","NORAD_CAT_ID":"46132","MEAN_ELEMENT_THEORY":"SGP4","GP_ID":"196425665","PERIOD":"95.592","FILE":"3308986","RCS_SIZE":"LARGE","TLE_LINE2":"2 46132  53.0549 115.3282 0001584  56.9013 303.2128 15.06403911 84436","TLE_LINE1":"1 46132U 20057R   22050.86463339  .00000016  00000-0  19981-4 0  9990","MEAN_MOTION":"15.06403911","INCLINATION":"53.0549","BSTAR":"0.00001998100000","PERIAPSIS":"546.105","MEAN_ANOMALY":"303.2128","OBJECT_ID":"2020-057R","OBJECT_NAME":"STARLINK-1630","COUNTRY_CODE":"US","RA_OF_ASC_NODE":"115.3282","TIME_SYSTEM":"UTC","LAUNCH_DATE":"2020-08-18","EPHEMERIS_TYPE":"0","ELEMENT_SET_NO":"999","ARG_OF_PERICENTER":"56.9013","EPOCH":"2022-02-19T20:45:04.324896","MEAN_MOTION_DOT":"0.00000016","CENTER_NAME":"EARTH","APOAPSIS":"548.299"},{"FILE":"3308986","RCS_SIZE":"LARGE","TLE_LINE2":"2 46133  53.0518  75.6096 0001914  55.6707 304.4463 15.06403591 84975","MEAN_ELEMENT_THEORY":"SGP4","NORAD_CAT_ID":"46133","GP_ID":"196425913","PERIOD":"95.592","DECAY_DATE":null,"ECCENTRICITY":"0.00019140","REV_AT_EPOCH":"8497","SEMIMAJOR_AXIS":"6925.338","SITE":"AFETR","CLASSIFICATION_TYPE":"U","REF_FRAME":"TEME","MEAN_MOTION_DDOT":"0.0000000000000","OBJECT_TYPE":"PAYLOAD","CENTER_NAME":"EARTH","APOAPSIS":"548.528","ELEMENT_SET_NO":"999","ARG_OF_PERICENTER":"55.6707","EPOCH":"2022-02-19T19:09:32.177376","MEAN_MOTION_DOT":"0.00000465","COUNTRY_CODE":"US","RA_OF_ASC_NODE":"75.6096","TIME_SYSTEM":"UTC","LAUNCH_DATE":"2020-08-18","EPHEMERIS_TYPE":"0","MEAN_MOTION":"15.06403591","TLE_LINE1":"1 46133U 20057S   22050.79828909  .00000465  00000-0  50127-4 0  9996","BSTAR":"0.00005012700000","INCLINATION":"53.0518","PERIAPSIS":"545.877","MEAN_ANOMALY":"304.4463","OBJECT_ID":"2020-057S","OBJECT_NAME":"STARLINK-1637"},{"MEAN_ANOMALY":"287.5570","OBJECT_ID":"2020-057T","OBJECT_NAME":"STARLINK-1638","INCLINATION":"53.0541","BSTAR":"-0.00003652900000","PERIAPSIS":"546.252","TLE_LINE1":"1 46134U 20057T   22050.80197537 -.00000826  00000-0 -36529-4 0  9998","MEAN_MOTION":"15.06402039","EPHEMERIS_TYPE":"0","TIME_SYSTEM":"UTC","LAUNCH_DATE":"2020-08-18","COUNTRY_CODE":"US","RA_OF_ASC_NODE":"75.5966","EPOCH":"2022-02-19T19:14:50.671968","MEAN_MOTION_DOT":"-0.00000826","ELEMENT_SET_NO":"999","ARG_OF_PERICENTER":"72.5569","APOAPSIS":"548.163","CENTER_NAME":"EARTH","OBJECT_TYPE":"PAYLOAD","MEAN_MOTION_DDOT":"0.0000000000000","REF_FRAME":"TEME","CLASSIFICATION_TYPE":"U","SITE":"AFETR","SEMIMAJOR_AXIS":"6925.342","REV_AT_EPOCH":"8372","DECAY_DATE":null,"ECCENTRICITY":"0.00013800","PERIOD":"95.592","GP_ID":"196426160","NORAD_CAT_ID":"46134","MEAN_ELEMENT_THEORY":"SGP4","TLE_LINE2":"2 46134  53.0541  75.5966 0001380  72.5569 287.5570 15.06402039 83726","RCS_SIZE":"LARGE","FILE":"3308986"},{"COUNTRY_CODE":"US","RA_OF_ASC_NODE":"76.7257","LAUNCH_DATE":"2020-08-18","TIME_SYSTEM":"UTC","EPHEMERIS_TYPE":"0","MEAN_MOTION":"15.06396539","TLE_LINE1":"1 46135U 20057U   22050.55132194  .00000068  00000-0  23443-4 0  9996","BSTAR":"0.00002344300000","INCLINATION":"53.0533","PERIAPSIS":"546.028","MEAN_ANOMALY":"297.3582","OBJECT_ID":"2020-057U","OBJECT_NAME":"STARLINK-1639","CENTER_NAME":"EARTH","APOAPSIS":"548.420","ELEMENT_SET_NO":"999","ARG_OF_PERICENTER":"62.7583","EPOCH":"2022-02-19T13:13:54.215616","MEAN_MOTION_DOT":"0.00000068","DECAY_DATE":null,"ECCENTRICITY":"0.00017270","REV_AT_EPOCH":"8368","SEMIMAJOR_AXIS":"6925.359","SITE":"AFETR","REF_FRAME":"TEME","CLASSIFICATION_TYPE":"U","MEAN_MOTION_DDOT":"0.0000000000000","OBJECT_TYPE":"PAYLOAD","FILE":"3308986","RCS_SIZE":"LARGE","TLE_LINE2":"2 46135  53.0533  76.7257 0001727  62.7583 297.3582 15.06396539 83680","MEAN_ELEMENT_THEORY":"SGP4","NORAD_CAT_ID":"46135","GP_ID":"196426414","PERIOD":"95.592"},{"REV_AT_EPOCH":"8331","SEMIMAJOR_AXIS":"6925.353","DECAY_DATE":null,"ECCENTRICITY":"0.00014070","MEAN_MOTION_DDOT":"0.0000000000000","OBJECT_TYPE":"PAYLOAD","SITE":"AFETR","CLASSIFICATION_TYPE":"U","REF_FRAME":"TEME","TLE_LINE2":"2 46136  53.0538 105.3166 0001407  58.0139 302.0987 15.06398590 83316","FILE":"3308986","RCS_SIZE":"LARGE","GP_ID":"196425165","PERIOD":"95.592","NORAD_CAT_ID":"46136","MEAN_ELEMENT_THEORY":"SGP4","TIME_SYSTEM":"UTC","LAUNCH_DATE":"2020-08-18","EPHEMERIS_TYPE":"0","COUNTRY_CODE":"US","RA_OF_ASC_NODE":"105.3166","MEAN_ANOMALY":"302.0987","OBJECT_ID":"2020-057V","OBJECT_NAME":"STARLINK-1643","MEAN_MOTION":"15.06398590","TLE_LINE1":"1 46136U 20057V   22050.86555880 -.00000719  00000-0 -29388-4 0  9991","INCLINATION":"53.0538","BSTAR":"-0.00002938800000","PERIAPSIS":"546.243","CENTER_NAME":"EARTH","APOAPSIS":"548.192","EPOCH":"2022-02-19T20:46:24.280320","MEAN_MOTION_DOT":"-0.00000719","ARG_OF_PERICENTER":"58.0139","ELEMENT_SET_NO":"999"},{"ARG_OF_PERICENTER":"62.6250","ELEMENT_SET_NO":"999","MEAN_MOTION_DOT":"-0.00001157","EPOCH":"2022-02-19T14:52:06.172896","CENTER_NAME":"EARTH","APOAPSIS":"548.322","MEAN_MOTION":"15.06395042","TLE_LINE1":"1 46137U 20057W   22050.61951589 -.00001157  00000-0 -58777-4 0  9992","PERIAPSIS":"546.135","BSTAR":"-0.00005877700000","INCLINATION":"53.0548","OBJECT_NAME":"STARLINK-1586","MEAN_ANOMALY":"297.4900","OBJECT_ID":"2020-057W","RA_OF_ASC_NODE":"96.4150","COUNTRY_CODE":"US","TIME_SYSTEM":"UTC","LAUNCH_DATE":"2020-08-18","EPHEMERIS_TYPE":"0","MEAN_ELEMENT_THEORY":"SGP4","NORAD_CAT_ID":"46137","GP_ID":"196425413","PERIOD":"95.592","FILE":"3308986","RCS_SIZE":"LARGE","TLE_LINE2":"2 46137  53.0548  96.4150 0001579  62.6250 297.4900 15.06395042 83418","SITE":"AFETR","REF_FRAME":"TEME","CLASSIFICATION_TYPE":"U","MEAN_MOTION_DDOT":"0.0000000000000","OBJECT_TYPE":"PAYLOAD","ECCENTRICITY":"0.00015790","DECAY_DATE":null,"REV_AT_EPOCH":"8341","SEMIMAJOR_AXIS":"6925.364"},{"CENTER_NAME":"EARTH","APOAPSIS":"548.419","MEAN_MOTION_DOT":"0.00000254","EPOCH":"2022-02-19T21:11:36.223296","ARG_OF_PERICENTER":"53.1254","ELEMENT_SET_NO":"999","TIME_SYSTEM":"UTC","LAUNCH_DATE":"2020-08-18","EPHEMERIS_TYPE":"0","RA_OF_ASC_NODE":"115.2363","COUNTRY_CODE":"US","OBJECT_NAME":"STARLINK-1590","MEAN_ANOMALY":"306.9892","OBJECT_ID":"2020-057X","TLE_LINE1":"1 46138U 20057X   22050.88305814  .00000254  00000-0  35938-4 0  9995","MEAN_MOTION":"15.06395760","PERIAPSIS":"546.034","BSTAR":"0.00003593800000","INCLINATION":"53.0546","TLE_LINE2":"2 46138  53.0546 115.2363 0001722  53.1254 306.9892 15.06395760 83178","FILE":"3308986","RCS_SIZE":"LARGE","GP_ID":"196426661","PERIOD":"95.592","NORAD_CAT_ID":"46138","MEAN_ELEMENT_THEORY":"SGP4","REV_AT_EPOCH":"8317","SEMIMAJOR_AXIS":"6925.362","ECCENTRICITY":"0.00017220","DECAY_DATE":null,"MEAN_MOTION_DDOT":"0.0000000000000","OBJECT_TYPE":"PAYLOAD","SITE":"AFETR","CLASSIFICATION_TYPE":"U","REF_FRAME":"TEME"},{"TLE_LINE2":"2 46140  53.0540  75.7161 0001812  43.5766 316.5366 15.06403732 84984","FILE":"3308986","RCS_SIZE":"LARGE","GP_ID":"196426915","PERIOD":"95.592","MEAN_ELEMENT_THEORY":"SGP4","NORAD_CAT_ID":"46140","REV_AT_EPOCH":"8498","SEMIMAJOR_AXIS":"6925.337","ECCENTRICITY":"0.00018120","DECAY_DATE":null,"MEAN_MOTION_DDOT":"0.0000000000000","OBJECT_TYPE":"PAYLOAD","SITE":"AFETR","CLASSIFICATION_TYPE":"U","REF_FRAME":"TEME","CENTER_NAME":"EARTH","APOAPSIS":"548.457","MEAN_MOTION_DOT":"0.00001342","EPOCH":"2022-02-19T18:37:40.820160","ELEMENT_SET_NO":"999","ARG_OF_PERICENTER":"43.5766","LAUNCH_DATE":"2020-08-18","TIME_SYSTEM":"UTC","EPHEMERIS_TYPE":"0","RA_OF_ASC_NODE":"75.7161","COUNTRY_CODE":"US","OBJECT_NAME":"STARLINK-1594","OBJECT_ID":"2020-057Z","MEAN_ANOMALY":"316.5366","MEAN_MOTION":"15.06403732","TLE_LINE1":"1 46140U 20057Z   22050.77616690  .00001342  00000-0  10894-3 0  9995","PERIAPSIS":"545.947","INCLINATION":"53.0540","BSTAR":"0.00010894000000"}];
